,citing author name,citing paper title,cited paper title,affiliation,latitude,longitude,county,city,state,country
0,Abhinav Kumar,AVO: Amortized Value Optimization for Contact Mode Switching in Multi-Finger Manipulation,Learning-based warm-starting for fast sequential convex programming and trajectory optimization,"Robotics PhD Candidate, University of Michigan",,,,,,
1,Abhishek Rathod,Active learning of discrete-time dynamics for uncertainty-aware model predictive control,Adaptive meta-learning for identification of rover-terrain dynamics,National Robotics Engineering Center,,,,,,
2,Adrian Kobras,Failure prediction at runtime for generative robot policies,A system-level view on out-of-distribution data in robotics,Technical University of Munich,48.2654976,11.6692249,Landkreis München,,Bavaria,Germany
3,Alejandro Carrasco,VibeOps: Intelligent Spacecraft Operations Co-Pilot,Adapting a foundation model for space-based tasks,"Student, Massachusetts Institute of Technology",,,,,,
4,Alexander Davydov,"First, Learn What You Don't Know: Active Information Gathering for Driving at the Limits of Handling",A system-level view on out-of-distribution data in robotics,Институт проблем передачи информации РАН,55.7725329,37.6158675,,Moscow,Moscow,Russia
5,Alexander Davydov,"First, Learn What You Don't Know: Active Information Gathering for Driving at the Limits of Handling",Adaptive meta-learning for identification of rover-terrain dynamics,Институт проблем передачи информации РАН,55.7725329,37.6158675,,Moscow,Moscow,Russia
6,Alexander Glaser,Privacy-Preserving Map-Free Exploration for Confirming the Absence of a Radioactive Source,A system-level view on out-of-distribution data in robotics,Princeton University,40.3386752,-74.6583655,Mercer County,,New Jersey,United States
7,Ali Hindy,Diagnostic runtime monitoring with martingales,A system-level view on out-of-distribution data in robotics,Researcher @ Stanford,,,,,,
8,Ali Hindy,Online distribution shift detection via recency prediction,A system-level view on out-of-distribution data in robotics,Researcher @ Stanford,,,,,,
9,Alireza Rafiei,Meta-learning in healthcare: A survey,Adaptive meta-learning for identification of rover-terrain dynamics,Mazandaran University of Medical Sciences,36.5309157,52.6769781,Babol County,Babol,Mazandaran Province,Iran
10,Alonso Marco,Out of distribution detection via domain-informed Gaussian process state space models,A system-level view on out-of-distribution data in robotics,University of California Berkeley,37.8754996,-122.2390685,Alameda County,Oakland,California,United States
11,Amine Elhafsi,Real-time anomaly detection and reactive planning with large language models,A system-level view on out-of-distribution data in robotics,Stanford University,37.4313138,-122.1693654,Santa Clara County,,California,United States
12,Amine Elhafsi,Semantic anomaly detection with large language models,A system-level view on out-of-distribution data in robotics,Stanford University,37.4313138,-122.1693654,Santa Clara County,,California,United States
13,Amine Elhafsi,Semantic anomaly detection with large language models,Data lifecycle management in evolving input distributions for learning-based aerospace applications,Stanford University,37.4313138,-122.1693654,Santa Clara County,,California,United States
14,Amine Elhafsi,Vision foundation model embedding-based semantic anomaly detection,A system-level view on out-of-distribution data in robotics,Stanford University,37.4313138,-122.1693654,Santa Clara County,,California,United States
15,Amirhossein Afsharrad,Generalizable spacecraft trajectory generation via multimodal learning with transformers,Learning-based warm-starting for fast sequential convex programming and trajectory optimization,Stanford University,37.4313138,-122.1693654,Santa Clara County,,California,United States
16,Andrea Bajcsy,UNISafe: Uncertainty-aware Latent Safety Filters for Avoiding Out-of-Distribution Failures,A system-level view on out-of-distribution data in robotics,Assistant Professor at Carnegie Mellon University,,,,,,
17,Andrea Bajcsy,Uncertainty-aware latent safety filters for avoiding out-of-distribution failures,A system-level view on out-of-distribution data in robotics,Assistant Professor at Carnegie Mellon University,,,,,,
18,Andrew Bylard,Safe active dynamics learning and control: A sequential exploration–exploitation framework,Adaptive meta-learning for identification of rover-terrain dynamics,Dexterity,52.2238761,-0.8430953,West Northamptonshire,,England,United Kingdom
19,Andrew Singletary,Safety-critical manipulation for collision-free food preparation,Learning-based warm-starting for fast sequential convex programming and trajectory optimization,"Graduate Student, Caltech",,,,,,
20,Angela Schoellig,Failure prediction at runtime for generative robot policies,A system-level view on out-of-distribution data in robotics,"Professor of Robotics, Technical University of Munich and University of Toronto",,,,,,
21,Anirudha Majumdar, Robotics: An Idiosyncratic Snapshot in the Age of LLMs,A system-level view on out-of-distribution data in robotics,"Associate Professor, Princeton University & Visiting Research Scientist, Google DeepMind",,,,,,
22,Anirudha Majumdar,Deceptive Risk Minimization: Out-of-Distribution Generalization by Deceiving Distribution Shift Detectors,A system-level view on out-of-distribution data in robotics,"Associate Professor, Princeton University & Visiting Research Scientist, Google DeepMind",,,,,,
23,Anirudha Majumdar,Predictive red teaming: Breaking policies without breaking robots,A system-level view on out-of-distribution data in robotics,"Associate Professor, Princeton University & Visiting Research Scientist, Google DeepMind",,,,,,
24,Anqi (Angie) Liu,WATCH: Adaptive monitoring for AI deployments via weighted-conformal martingales,Diagnostic runtime monitoring with martingales,Johns Hopkins University,39.3302023,-76.6218536,,Baltimore,Maryland,United States
25,Anushri Dixit,"Risk-aware robotics: Tail risk measures in planning, control, and verification [focus on education]",A system-level view on out-of-distribution data in robotics,"Assistant Professor, UCLA",,,,,,
26,Aryaman Gupta,Detecting and mitigating system-level anomalies of vision-based controllers,A system-level view on out-of-distribution data in robotics,IIIT hyderabad,17.4454957,78.348547,Serilingampalle mandal,Hyderabad,Telangana,India
27,Azra Begzadić,Space to Time: Out-of-Distribution Generalization of Safety Filters via Temporal Disturbance Encoding,A system-level view on out-of-distribution data in robotics,"PhD Student, UC San Diego",,,,,,
28,Bogdan Vlahov,Meta-learning online dynamics model adaptation in off-road autonomous driving,Adaptive meta-learning for identification of rover-terrain dynamics,Georgia Tech,33.7760948,-84.3988077,Fulton County,Atlanta,Georgia,United States
29,Boris Ivanovic,Leveraging neural network gradients within trajectory optimization for proactive human-robot interactions,Learning-based warm-starting for fast sequential convex programming and trajectory optimization,NVIDIA,45.5344957,-122.886274,Washington County,Hillsboro,Oregon,United States
30,Boseok Kim,Receding-Horizon Midcourse Guidance for Variable-Flow Ducted Rocket Missiles,Learning-based warm-starting for fast sequential convex programming and trajectory optimization,Korea Advanced Institute of Science and Technology,36.3698812,127.3623793,,Daejeon,,South Korea
31,Cailian Chen,Safety-aware optimal control for motion planning with low computing complexity,Learning-based warm-starting for fast sequential convex programming and trajectory optimization,Shanghai Jiao Tong University,31.2008912,121.4283949,,,,China
32,Caleb Ashmore Adams,Analyzing the effectiveness of neural radiance fields for geometric modeling of lunar terrain,VIPER Traverse Planning,NASA Ames Research Center,37.4152733,-122.0600483,Santa Clara County,,California,United States
33,Chaoxu Mu," A review of smart grid evolution and reinforcement learning: Applications, challenges and future directions",Contingency Planning Using Bi-level Markov Decision Processes for Space Missions,Tianjin University,39.1072533,117.1778919,,Heping District,Tianjin,China
34,Christopher Agia,Real-time anomaly detection and reactive planning with large language models,A system-level view on out-of-distribution data in robotics,"PhD Student in Computer Science, Stanford University",,,,,,
35,Christopher Agia,Real-time out-of-distribution failure prevention via multi-modal reasoning,A system-level view on out-of-distribution data in robotics,"PhD Student in Computer Science, Stanford University",,,,,,
36,Christopher Agia,Robomonkey: Scaling test-time sampling and verification for vision-language-action models,A system-level view on out-of-distribution data in robotics,"PhD Student in Computer Science, Stanford University",,,,,,
37,Christopher Agia,Semantic anomaly detection with large language models,A system-level view on out-of-distribution data in robotics,"PhD Student in Computer Science, Stanford University",,,,,,
38,Christopher Agia,Semantic anomaly detection with large language models,Data lifecycle management in evolving input distributions for learning-based aerospace applications,"PhD Student in Computer Science, Stanford University",,,,,,
39,Chuan Wen,Armada: Autonomous online failure detection and human shared control empower scalable real-world deployment and adaptation,A system-level view on out-of-distribution data in robotics,Shanghai Jiao Tong University,31.2008912,121.4283949,,,,China
40,Claire Tomlin,Out of distribution detection via domain-informed Gaussian process state space models,A system-level view on out-of-distribution data in robotics,UC Berkeley,37.8754996,-122.2390685,Alameda County,Oakland,California,United States
41,Colin Paterson,Out-of-Distribution Detection for Safety Assurance of AI and Autonomous Systems,A system-level view on out-of-distribution data in robotics,University of York,53.9453903,-1.0314593,York,,England,United Kingdom
42,Cyndia Cao, Push-pull locomotion: Increasing travel velocity in loose regolith via induced wheel slip,VIPER Traverse Planning,"University of California, Berkeley",33.6487724,-117.8364995,Orange County,Irvine,California,United States
43,Daniel Morton,Deformable Cargo Transport in Microgravity with Astrobee,Learning-based warm-starting for fast sequential convex programming and trajectory optimization,"PhD student, Stanford University",,,,,,
44,Daniel Morton,Real-time out-of-distribution failure prevention via multi-modal reasoning,A system-level view on out-of-distribution data in robotics,"PhD student, Stanford University",,,,,,
45,Daniele Gammelli,Agile Tradespace Exploration for Space Rendezvous Mission Design via Transformers,Deep Learning Warm Starts for Trajectory Optimization on the International Space Station,Stanford University,37.4313138,-122.1693654,Santa Clara County,,California,United States
46,Daniele Gammelli,Agile Tradespace Exploration for Space Rendezvous Mission Design via Transformers,Learning-based warm-starting for fast sequential convex programming and trajectory optimization,Stanford University,37.4313138,-122.1693654,Santa Clara County,,California,United States
47,Daniele Gammelli,Space-llava: a vision-language model adapted to extraterrestrial applications,Adapting a foundation model for space-based tasks,Stanford University,37.4313138,-122.1693654,Santa Clara County,,California,United States
48,Daniele Gammelli,Space-llava: a vision-language model adapted to extraterrestrial applications,Self-Supervised Model Generalization using Out-of-Distribution Detection,Stanford University,37.4313138,-122.1693654,Santa Clara County,,California,United States
49,Daniele Gammelli,Transformer-based model predictive control: Trajectory optimization via sequence modeling,Learning-based warm-starting for fast sequential convex programming and trajectory optimization,Stanford University,37.4313138,-122.1693654,Santa Clara County,,California,United States
50,Daniele Gammelli,Transformers for trajectory optimization with application to spacecraft rendezvous,Learning-based warm-starting for fast sequential convex programming and trajectory optimization,Stanford University,37.4313138,-122.1693654,Santa Clara County,,California,United States
51,Daniele Gammelli,Vision foundation model embedding-based semantic anomaly detection,A system-level view on out-of-distribution data in robotics,Stanford University,37.4313138,-122.1693654,Santa Clara County,,California,United States
52,David C Snyder,Privacy-Preserving Map-Free Exploration for Confirming the Absence of a Radioactive Source,A system-level view on out-of-distribution data in robotics,University of Wisconsin - Stevens Point,44.5314509,-89.5694714,Portage County,Stevens Point,Wisconsin,United States
53,David Russell,Model Predictive Control with Efficient Trajectory Optimisation for Contact-based Manipulation,Learning-based warm-starting for fast sequential convex programming and trajectory optimization,"PhD Student, University of Leeds",,,,,,
54,Deaho Moon, Push-pull locomotion: Increasing travel velocity in loose regolith via induced wheel slip,VIPER Traverse Planning,University of California Berkeley,37.8754996,-122.2390685,Alameda County,Oakland,California,United States
55,Di Wu,APBench and benchmarking large language model performance in fundamental astrodynamics problems for space engineering,Adapting a foundation model for space-based tasks,Massachusetts Institute of Technology,42.3582529,-71.0966272,Middlesex County,Cambridge,Massachusetts,United States
56,Di Wu,Guiding Generative AI Solution for Fundamental Astrodynamics Problems,Adapting a foundation model for space-based tasks,Massachusetts Institute of Technology,42.3582529,-71.0966272,Middlesex County,Cambridge,Massachusetts,United States
57,Dmitry Kalashnikov,Predictive red teaming: Breaking policies without breaking robots,A system-level view on out-of-distribution data in robotics,Google,37.421473,-122.080679,Santa Clara,Mountain View,California,USA
58,Domenico Dona',Real-Time Generation of Near Minimum-Energy Trajectories via Constraint-Informed Residual Learning: A Paradigm for Learning From Optimal Solutions,Learning-based warm-starting for fast sequential convex programming and trajectory optimization,Free University of Bozen-Bolzano,46.498298,11.3501018,South Tyrol,Bolzano,Trentino – Alto Adige/Südtirol,Italy
59,Domenico Dona',Real-Time Generation of Near-Minimum-Energy Trajectories via Constraint-Informed Residual Learning,Learning-based warm-starting for fast sequential convex programming and trajectory optimization,Free University of Bozen-Bolzano,46.498298,11.3501018,South Tyrol,Bolzano,Trentino – Alto Adige/Südtirol,Italy
60,Dr. Suchi Saria,WATCH: Adaptive monitoring for AI deployments via weighted-conformal martingales,Diagnostic runtime monitoring with martingales,"John C. Malone  Endowed Chair; Computer Science, Statistics, Medicine, Health Policy, Johns Hopkins",,,,,,
61,Dr. rer. nat. Ismael Valentín Rodríguez Brena,Density-based feasibility learning with normalizing flows for introspective robotic assembly,A system-level view on out-of-distribution data in robotics,Agile Robots,48.1027669,11.5401825,,Munich,Bavaria,Germany
62,Drew Prinster,WATCH: Adaptive monitoring for AI deployments via weighted-conformal martingales,Diagnostic runtime monitoring with martingales,"PhD Student, Johns Hopkins University",,,,,,
63,Edward Schmerling,Closing the loop on runtime monitors with fallback-safe MPC,A system-level view on out-of-distribution data in robotics,Stanford University,37.4313138,-122.1693654,Santa Clara County,,California,United States
64,Edward Schmerling,Semantic anomaly detection with large language models,A system-level view on out-of-distribution data in robotics,Stanford University,37.4313138,-122.1693654,Santa Clara County,,California,United States
65,Edward Schmerling,Semantic anomaly detection with large language models,Data lifecycle management in evolving input distributions for learning-based aerospace applications,Stanford University,37.4313138,-122.1693654,Santa Clara County,,California,United States
66,Edward Schmerling,Tokenize the world into object-level knowledge to address long-tail events in autonomous driving,A system-level view on out-of-distribution data in robotics,Stanford University,37.4313138,-122.1693654,Santa Clara County,,California,United States
67,Ehsan Taheri,Neural Network Based Collision-Free Trajectory Generator for Quadcopters,Learning-based warm-starting for fast sequential convex programming and trajectory optimization,Auburn University,32.5919528,-85.4959775,Lee County,Auburn,Alabama,United States
68,Enrico M  Zucchelli,APBench and benchmarking large language model performance in fundamental astrodynamics problems for space engineering,Adapting a foundation model for space-based tasks,Massachusetts Institute of Technology,42.3582529,-71.0966272,Middlesex County,Cambridge,Massachusetts,United States
69,Ersin Daş,Ai space cortex: An experimental system for future era space exploration,Adapting a foundation model for space-based tasks,"Assistant Professor, Illinois Institute of Technology",,,,,,
70,Ethan Foss,Space-llava: a vision-language model adapted to extraterrestrial applications,Adapting a foundation model for space-based tasks,Stanford University,37.4313138,-122.1693654,Santa Clara County,,California,United States
71,Ethan Foss,Space-llava: a vision-language model adapted to extraterrestrial applications,Self-Supervised Model Generalization using Out-of-Distribution Detection,Stanford University,37.4313138,-122.1693654,Santa Clara County,,California,United States
72,Fan Yang,AVO: Amortized Value Optimization for Contact Mode Switching in Multi-Finger Manipulation,Learning-based warm-starting for fast sequential convex programming and trajectory optimization,University of Michigan,42.2942142,-83.7100389,Washtenaw County,Ann Arbor,Michigan,United States
73,Fengze Xie,MAGICVFM-Meta-Learning Adaptation for Ground Interaction Control With Visual Foundation Models,Adaptive meta-learning for identification of rover-terrain dynamics,California Institute of Technology,34.1370138,-118.1252883,Los Angeles County,Pasadena,California,United States
74,G. T. Ran,Joint trajectory replanning for mars ascent vehicle under propulsion system faults: A suboptimal learning-based warm-start approach,Learning-based warm-starting for fast sequential convex programming and trajectory optimization,Harbin Institute of Technology,45.741589,126.6255626,,Harbin,Heilongjiang,China
75,George Pappas,Verification of Sequential Convex Programming for Parametric Non-convex Optimization,Learning-based warm-starting for fast sequential convex programming and trajectory optimization,"UPS Foundation Professor, Electrical and Systems Engineering, University of Pennsylvania",,,,,,
76,Giovanni Franzese,Real-Time Generation of Near Minimum-Energy Trajectories via Constraint-Informed Residual Learning: A Paradigm for Learning From Optimal Solutions,Learning-based warm-starting for fast sequential convex programming and trajectory optimization,Lead Researcher on Robot Manipulation at the Technology Innovation Institute,,,,,,
77,Giovanni Franzese,Real-Time Generation of Near-Minimum-Energy Trajectories via Constraint-Informed Residual Learning,Learning-based warm-starting for fast sequential convex programming and trajectory optimization,Lead Researcher on Robot Manipulation at the Technology Innovation Institute,,,,,,
78,Giuseppe Loianno,"Learning quadrotor dynamics for precise, safe, and agile flight control",Adaptive meta-learning for identification of rover-terrain dynamics,UC Berkeley,37.8754996,-122.2390685,Alameda County,Oakland,California,United States
79,Guangtong Xu,Real-time multi-quadrotor trajectory generation via distributed receding architecture and hierarchical planning in complex environments,Learning-based warm-starting for fast sequential convex programming and trajectory optimization,Tsinghua University,40.0022905,116.320963,,Haidian District,,China
80,Haitao Yu, Vibration-Based Recognition of Wheel–Terrain Interaction for Terramechanics Model Selection and Terrain Parameter Identification for Lugged-Wheel …,Adaptive meta-learning for identification of rover-terrain dynamics,Harbin Institute of Technology,45.741589,126.6255626,,Harbin,Heilongjiang,China
81,Haruki Nishimura,Safe: Multitask failure detection for vision-language-action models,A system-level view on out-of-distribution data in robotics,Toyota Research Institute,37.4025364,-122.1165511,Santa Clara County,,California,United States
82,Huihan  Liu,Model-based runtime monitoring with interactive imitation learning,A system-level view on out-of-distribution data in robotics,"University of Texas, Austin",30.2851494,-97.7339352,Travis County,Austin,Texas,United States
83,Hyeongjun Park, DECENTRALIZED PREDICTIVE GUIDANCE AND CONTROL FOR FORMATION FLYING OF NASA ASTROBEE ROBOTS,Learning-based warm-starting for fast sequential convex programming and trajectory optimization,"Assistant Professor, Seoul National University, Republic of Korea",,,,,,
84,Hyeongjun Park,Intelligent path planning with cross-entropy method and recurrent neural networks for spacecraft proximity operations,Learning-based warm-starting for fast sequential convex programming and trajectory optimization,"Assistant Professor, Seoul National University, Republic of Korea",,,,,,
85,Hyo-Sang Shin,Optimisation of Structured Neural Controller Based on Continuous-Time Policy Gradient,Adaptive meta-learning for identification of rover-terrain dynamics,"Professor, KAIST/Cranfield University",,,,,,
86,Ibrahim Habli,Out-of-Distribution Detection for Safety Assurance of AI and Autonomous Systems,A system-level view on out-of-distribution data in robotics,Professor of Safety-Critical Systems at the University of York,,,,,,
87,Igor Gilitschenski,Safe: Multitask failure detection for vision-language-action models,A system-level view on out-of-distribution data in robotics,"Assistant Professor, University of Toronto",,,,,,
88,Isabella Huang,Mobi-: Mobilizing Your Robot Learning Policy,A system-level view on out-of-distribution data in robotics,UC Berkeley,37.8754996,-122.2390685,Alameda County,Oakland,California,United States
89,Isuru Basnayake, DECENTRALIZED PREDICTIVE GUIDANCE AND CONTROL FOR FORMATION FLYING OF NASA ASTROBEE ROBOTS,Learning-based warm-starting for fast sequential convex programming and trajectory optimization,"Postdoctoral Researcher, , New Mexico State University",,,,,,
90,Jacob Levy,Meta-learning online dynamics model adaptation in off-road autonomous driving,Adaptive meta-learning for identification of rover-terrain dynamics,"PhD Student, University of Texas at Austin",,,,,,
91,James A. Preiss,MAGICVFM-Meta-Learning Adaptation for Ground Interaction Control With Visual Foundation Models,Adaptive meta-learning for identification of rover-terrain dynamics,"Assistant Professor of Computer Science, University of California, Santa Barbara",,,,,,
92,James Harrison,Safe active dynamics learning and control: A sequential exploration–exploitation framework,Adaptive meta-learning for identification of rover-terrain dynamics,Google DeepMind,37.421473,-122.080679,Santa Clara,Mountain View,California,USA
93,Jedidiah Alindogan,MAGICVFM-Meta-Learning Adaptation for Ground Interaction Control With Visual Foundation Models,Adaptive meta-learning for identification of rover-terrain dynamics,"Graduate Student, California Institute of Technology",,,,,,
94,Jia Liu,Collision-free trajectory planning for UAVs based on sequential convex programming,Learning-based warm-starting for fast sequential convex programming and trajectory optimization,Xi'an Jiaotong University,34.217216,108.937846,,Yanta District,Shaanxi,China
95,Jiangchao Yao,Breaking the Detection-Generalization Paradox on Out-Of-Distribution Data,A system-level view on out-of-distribution data in robotics,Shanghai Jiao Tong University,31.2008912,121.4283949,,,,China
96,Jianglong Yu,Real-time computational powered landing guidance using convex optimization and neural networks,Learning-based warm-starting for fast sequential convex programming and trajectory optimization,Beihang University,39.9809427,116.3409787,,Haidian District,,China
97,Jianping He,Safety-aware optimal control for motion planning with low computing complexity,Learning-based warm-starting for fast sequential convex programming and trajectory optimization,Shanghai Jiao Tong University,31.2008912,121.4283949,,,,China
98,Jingyun Yang,Mobi-: Mobilizing Your Robot Learning Policy,A system-level view on out-of-distribution data in robotics,"PhD Student, Stanford University",,,,,,
99,Jinjie LI,Learning to Initialize Trajectory Optimization for Vision-Based Autonomous Flight in Unknown Environments,Learning-based warm-starting for fast sequential convex programming and trajectory optimization,"PhD Student, The University of Tokyo",,,,,,
100,Jinjie LI,Learning-Initialized Trajectory Planning in Unknown Environments,Learning-based warm-starting for fast sequential convex programming and trajectory optimization,"PhD Student, The University of Tokyo",,,,,,
101,John J. Martinez Molina, DECENTRALIZED PREDICTIVE GUIDANCE AND CONTROL FOR FORMATION FLYING OF NASA ASTROBEE ROBOTS,Learning-based warm-starting for fast sequential convex programming and trajectory optimization,Professor in automatic control,,,,,,
102,Johnathan A Tucker,"Foundation models in robotics: Applications, challenges, and the future",A system-level view on out-of-distribution data in robotics,Department of Aeronautics and Astronautics,,,,,,
103,Jonathan Frey,Active learning of discrete-time dynamics for uncertainty-aware model predictive control,Adaptive meta-learning for identification of rover-terrain dynamics,"Systems Control and Optimization Laboratory, IMTEK, Faculty of Engineering, University of Freiburg",,,,,,
104,Jonathan Kuck,Diagnostic runtime monitoring with martingales,A system-level view on out-of-distribution data in robotics,Stanford University,37.4313138,-122.1693654,Santa Clara County,,California,United States
105,Jongseok Lee,Topology-matching normalizing flows for out-of-distribution detection in robot learning,A system-level view on out-of-distribution data in robotics,German Aerospace Center,50.8532848,7.124659,,Cologne,North Rhine-Westphalia,Germany
106,Jun Lv,Armada: Autonomous online failure detection and human shared control empower scalable real-world deployment and adaptation,A system-level view on out-of-distribution data in robotics,Shanghai Jiao Tong University,31.2008912,121.4283949,,,,China
107,Jun Ota,Experience-based Optimal Motion Planning Algorithm for Solving Difficult Planning Problems Using a Limited Dataset,A system-level view on out-of-distribution data in robotics,"Research into Artifacts, Center for Engineering (RACE), School of Engg., The University of Tokyo",,,,,,
108,Junwon Seo,Safe navigation in unstructured environments by minimizing uncertainty in control and perception,Adaptive meta-learning for identification of rover-terrain dynamics,Carnegie Mellon University,40.4439193,-79.9428267,Allegheny County,Pittsburgh,Pennsylvania,United States
109,Junwon Seo,UNISafe: Uncertainty-aware Latent Safety Filters for Avoiding Out-of-Distribution Failures,A system-level view on out-of-distribution data in robotics,Carnegie Mellon University,40.4439193,-79.9428267,Allegheny County,Pittsburgh,Pennsylvania,United States
110,Junwon Seo,Uncertainty-aware latent safety filters for avoiding out-of-distribution failures,A system-level view on out-of-distribution data in robotics,Carnegie Mellon University,40.4439193,-79.9428267,Allegheny County,Pittsburgh,Pennsylvania,United States
111,Justin Kruger,Space-llava: a vision-language model adapted to extraterrestrial applications,Adapting a foundation model for space-based tasks,Stanford University,37.4313138,-122.1693654,Santa Clara County,,California,United States
112,Justin Kruger,Space-llava: a vision-language model adapted to extraterrestrial applications,Self-Supervised Model Generalization using Out-of-Distribution Detection,Stanford University,37.4313138,-122.1693654,Santa Clara County,,California,United States
113,Karen Leung,Leveraging neural network gradients within trajectory optimization for proactive human-robot interactions,Learning-based warm-starting for fast sequential convex programming and trajectory optimization,University of Washington,47.6554303,-122.3001692,King County,Seattle,Washington,United States
114,Karen Leung,Unified Generation-Refinement Planning: Bridging Guided Flow Matching and Sampling-Based MPC for Social Navigation,Learning-based warm-starting for fast sequential convex programming and trajectory optimization,University of Washington,47.6554303,-122.3001692,King County,Seattle,Washington,United States
115,Kartic Subr,Action sequencing using visual permutations,Learning-based warm-starting for fast sequential convex programming and trajectory optimization,University of Edinburgh,55.9440765,-3.1883736,,City of Edinburgh,Scotland,United Kingdom
116,Kaustav Chakraborty,Detecting and mitigating system-level anomalies of vision-based controllers,A system-level view on out-of-distribution data in robotics,University of Southern California,34.021869,-118.2858579,Los Angeles County,Los Angeles,California,United States
117,Kazuki Mizuta,Unified Generation-Refinement Planning: Bridging Guided Flow Matching and Sampling-Based MPC for Social Navigation,Learning-based warm-starting for fast sequential convex programming and trajectory optimization,University of Washington,47.6554303,-122.3001692,King County,Seattle,Washington,United States
118,Keenan Albee,CRESCENT: Collision-Free Highly-Constrained Trajectory Optimization for Driving on the Moon,Contingency Planning Using Bi-level Markov Decision Processes for Space Missions,University of Southern California,34.021869,-118.2858579,Los Angeles County,Los Angeles,California,United States
119,Kensuke Nakamura,Breaking Down and Scaling Up: Game-Theoretic Algorithms for Open-world HRI,A system-level view on out-of-distribution data in robotics,PhD Student at Carnegie Mellon University,,,,,,
120,Kensuke Nakamura,Uncertainty-aware latent safety filters for avoiding out-of-distribution failures,A system-level view on out-of-distribution data in robotics,PhD Student at Carnegie Mellon University,,,,,,
121,Kevin Leahy,Belief Space Control of Safety-Critical Systems Under State-Dependent Measurement Noise,A system-level view on out-of-distribution data in robotics,Worcester Polytechnic Institute,42.274315,-71.8084567,Worcester County,Worcester,Massachusetts,United States
122,Kevin Leahy,Framework for Filtering Neural Network Predictions for Robust State Estimation,A system-level view on out-of-distribution data in robotics,Worcester Polytechnic Institute,42.274315,-71.8084567,Worcester County,Worcester,Massachusetts,United States
123,Kimia Fereydooni,Plasma production and composition from hypervelocity impacts on solar cell cover glass,Electric Field Polarization of Electromagnetic Radiation from Micrometeoroid and Dust Impacts on Spacecraft,Ph.D. Candidate and Columbia University,,,,,,
124,Kostas Margellos,Safety-aware optimal control for motion planning with low computing complexity,Learning-based warm-starting for fast sequential convex programming and trajectory optimization,University of Oxford,33.6505419,-117.8270531,Orange County,Irvine,California,United States
125,Kun Li,Joint trajectory replanning for mars ascent vehicle under propulsion system faults: A suboptimal learning-based warm-start approach,Learning-based warm-starting for fast sequential convex programming and trajectory optimization,"Control Science and Engineering, Harbin Institute of Technology",,,,,,
126,Lei Ma,"Reliability engineering, risk management, and trustworthiness assurance for AI systems",A system-level view on out-of-distribution data in robotics,"Associate Professor, The University of Tokyo, Japan & University of Alberta, Canada",,,,,,
127,Li Wentao, Trajectory optimization with complex obstacle avoidance constraints via homotopy network sequential convex programming,Learning-based warm-starting for fast sequential convex programming and trajectory optimization,Hohai University,32.0576594,118.7550399,,Gulou District,Jiangsu,China
128,Liang Ding, Vibration-Based Recognition of Wheel–Terrain Interaction for Terramechanics Model Selection and Terrain Parameter Identification for Lugged-Wheel …,Adaptive meta-learning for identification of rover-terrain dynamics,"Professor in State Key Laboratory of Robotics and System, Harbin Institute of Technology",,,,,,
129,Luca Carlone,"Monitoring of perception systems: Deterministic, probabilistic, and learning-based fault detection and identification",A system-level view on out-of-distribution data in robotics,"Associate Professor, Massachusetts Institute of Technology",,,,,,
130,Luigi Di Lillo,Real-time out-of-distribution failure prevention via multi-modal reasoning,A system-level view on out-of-distribution data in robotics,Stanford University,37.4313138,-122.1693654,Santa Clara County,,California,United States
131,Marco Moletta,Real-time operator takeover for visuomotor diffusion policy training,A system-level view on out-of-distribution data in robotics,KTH Royal Institute of Technology,59.2016758,17.6203201,Stockholm County,Södertälje,,Sweden
132,Margaret Hansen,Analyzing the effectiveness of neural radiance fields for geometric modeling of lunar terrain,VIPER Traverse Planning,Carnegie Mellon University,40.4439193,-79.9428267,Allegheny County,Pittsburgh,Pennsylvania,United States
133,Margaret Hansen,The POLAR Traverse dataset: A dataset of stereo camera images simulating traverses across lunar polar terrain under extreme lighting conditions,VIPER Traverse Planning,Carnegie Mellon University,40.4439193,-79.9428267,Allegheny County,Pittsburgh,Pennsylvania,United States
134,Martin Elvis,Lunar far-side radio arrays: a preliminary site survey,VIPER Traverse Planning,Harvard-Smithsonian Center for Astrophysics,42.3814411,-71.1284012,Middlesex County,Cambridge,Massachusetts,United States
135,Martina Mammarella,Controls for Space: a perspective to 2030s and beyond I,Adapting a foundation model for space-based tasks,"Researcher, CNR-IEIIT",,,,,,
136,Matan Atad,Density-based feasibility learning with normalizing flows for introspective robotic assembly,A system-level view on out-of-distribution data in robotics,"Lab for AI in Medicine, Department of Computer Science, Technical University of Munich",,,,,,
137,Matteo D'Ambrosio, Conditioned Sequence Models for Warm-Starting Sequential Convex Trajectory Optimization in Space Robots,Learning-based warm-starting for fast sequential convex programming and trajectory optimization,Politecnico di Milano,45.0468832,9.7030881,Piacenza,Piacenza,Emilia-Romagna,Italy
138,Matthew Cleaveland,Distributionally robust statistical verification with imprecise neural networks,A system-level view on out-of-distribution data in robotics,MIT Lincoln Laboratory,42.4571974,-71.2668016,Middlesex County,,Massachusetts,United States
139,Matthew Foutter,Real-time anomaly detection and reactive planning with large language models,A system-level view on out-of-distribution data in robotics,"PhD Candidate, Stanford University",,,,,,
140,Matthew Foutter,Robomonkey: Scaling test-time sampling and verification for vision-language-action models,A system-level view on out-of-distribution data in robotics,"PhD Candidate, Stanford University",,,,,,
141,Matthew Foutter,Self-supervised model generalization using out-of-distribution detection,Data lifecycle management in evolving input distributions for learning-based aerospace applications,"PhD Candidate, Stanford University",,,,,,
142,Matthew Foutter,Space-llava: a vision-language model adapted to extraterrestrial applications,Adapting a foundation model for space-based tasks,"PhD Candidate, Stanford University",,,,,,
143,Matthew Foutter,Space-llava: a vision-language model adapted to extraterrestrial applications,Self-Supervised Model Generalization using Out-of-Distribution Detection,"PhD Candidate, Stanford University",,,,,,
144,Michael (Miki) Szmuk,Convex optimization for trajectory generation,Learning-based warm-starting for fast sequential convex programming and trajectory optimization,University of Washington,47.6554303,-122.3001692,King County,Seattle,Washington,United States
145,Michael (Miki) Szmuk,Convex optimization for trajectory generation: A tutorial on generating dynamically feasible trajectories reliably and efficiently,Learning-based warm-starting for fast sequential convex programming and trajectory optimization,University of Washington,47.6554303,-122.3001692,King County,Seattle,Washington,United States
146,Michael Burke,Action sequencing using visual permutations,Learning-based warm-starting for fast sequential convex programming and trajectory optimization,Monash University,-37.7839745,144.9586743,,Melbourne,Victoria,Australia
147,Milan Ganai,Real-time out-of-distribution failure prevention via multi-modal reasoning,A system-level view on out-of-distribution data in robotics,Stanford University,37.4313138,-122.1693654,Santa Clara County,,California,United States
148,Mingming Wang,Trajectory planning of free-floating space robot based on dual-mode switching,Learning-based warm-starting for fast sequential convex programming and trajectory optimization,Northwestern Polytechnical University,34.2469224,108.9106235,,Beilin District,Shaanxi,China
149,Mitchell K. Black Jr.,Belief Space Control of Safety-Critical Systems Under State-Dependent Measurement Noise,A system-level view on out-of-distribution data in robotics,MIT Lincoln Laboratory,42.4571974,-71.2668016,Middlesex County,,Massachusetts,United States
150,Mohamadreza Ahmadi,"Risk-aware robotics: Tail risk measures in planning, control, and verification [focus on education]",A system-level view on out-of-distribution data in robotics,California Institute of Technology,34.1370138,-118.1252883,Los Angeles County,Pasadena,California,United States
151,Mohammad Emadi,On weighted sum‐rate maximization of full‐duplex systems in presence of STAR‐RIS,Learning-based warm-starting for fast sequential convex programming and trajectory optimization,Researcher,,,,,,
152,Mohammad Khalil Monjed,A calibration framework toward model generalization for bacteria concentration estimation in water resource recovery facilities,A system-level view on out-of-distribution data in robotics,"Assistant Professor of Fungal biotechnology, Umm Al-Qura University",,,,,,
153,Mohammad Reza Kavianinia,On weighted sum‐rate maximization of full‐duplex systems in presence of STAR‐RIS,Learning-based warm-starting for fast sequential convex programming and trajectory optimization,"PhD candidate, Amirkabir University of Technology",,,,,,
154,Mohit Sharma,Predictive red teaming: Breaking policies without breaking robots,A system-level view on out-of-distribution data in robotics,Google DeepMind,37.421473,-122.080679,Santa Clara,Mountain View,California,USA
155,Moritz Diehl,Active learning of discrete-time dynamics for uncertainty-aware model predictive control,Adaptive meta-learning for identification of rover-terrain dynamics,"Professor of Systems, Control and Optimization at the University of Freiburg",,,,,,
156,Namhoon Cho,Optimisation of Structured Neural Controller Based on Continuous-Time Policy Gradient,Adaptive meta-learning for identification of rover-terrain dynamics,Seoul National University,37.4668979,126.9477791,,Seoul,,South Korea
157,Nicolas Lee,Plasma production and composition from hypervelocity impacts on solar cell cover glass,Electric Field Polarization of Electromagnetic Radiation from Micrometeoroid and Dust Impacts on Spacecraft,Stanford University,37.4313138,-122.1693654,Santa Clara County,,California,United States
158,Nikhil Shinde,Space to Time: Out-of-Distribution Generalization of Safety Filters via Temporal Disturbance Encoding,A system-level view on out-of-distribution data in robotics,PhD Candidate,,,,,,
159,Nikolai Matni,Verification of Sequential Convex Programming for Parametric Non-convex Optimization,Learning-based warm-starting for fast sequential convex programming and trajectory optimization,"Associate Professor of Electrical and Systems Engineering, University of Pennsylvania",,,,,,
160,No_author_found, Multi-Batch Carrier-Based UAV Formation Rendezvous Method Based on Improved Sequential Convex Programming,Learning-based warm-starting for fast sequential convex programming and trajectory optimization,No_author_found,,,,,,
161,No_author_found, Neural network-based approach for failure and life prediction of electronic components under accelerated life stress,Data lifecycle management in evolving input distributions for learning-based aerospace applications,No_author_found,,,,,,
162,No_author_found, Uncertainty-Aware Planning for Off-road Autonomous Driving with Vision-Conditioned Learned Dynamics,Adaptive meta-learning for identification of rover-terrain dynamics,No_author_found,,,,,,
163,No_author_found,Adaptive Situational Awareness for Real-Time Lunar Surface Operations,VIPER Traverse Planning,No_author_found,,,,,,
164,No_author_found,Characterizing Dusty Plasmas Formed by Hypervelocity Impacts Through Experiments and Particle In-Cell (PIC) Simulations,Electric Field Polarization of Electromagnetic Radiation from Micrometeoroid and Dust Impacts on Spacecraft,No_author_found,,,,,,
165,No_author_found,Conformal Safety Monitoring for Flight Testing: A Case Study in Data-Driven Safety Learning,A system-level view on out-of-distribution data in robotics,No_author_found,,,,,,
166,No_author_found,Discharge and electromagnetic radiation behind the hole of simulated charging satellite surface under impact,Dusty plasma effects in hypervelocity impacts on the ground and in space,No_author_found,,,,,,
167,No_author_found,Goal-oriented guidance under uncertainties for small bodies exploration,Learning-based warm-starting for fast sequential convex programming and trajectory optimization,No_author_found,,,,,,
168,No_author_found,Learning-Enhanced Mission-Domain Trajectory Reconfiguration for Fault-Tolerant Launch Vehicle Ascent via Successive Convexification,Learning-based warm-starting for fast sequential convex programming and trajectory optimization,No_author_found,,,,,,
169,No_author_found,Learning-based initialization of trajectory optimization for path-following problems of redundant manipulators,Learning-based warm-starting for fast sequential convex programming and trajectory optimization,No_author_found,,,,,,
170,No_author_found,Leveraging AI for intelligent decision-making in space mission planning,Contingency Planning Using Bi-level Markov Decision Processes for Space Missions,No_author_found,,,,,,
171,No_author_found,Meta-learning enhanced model predictive contouring control for agile and precise quadrotor flight,Adaptive meta-learning for identification of rover-terrain dynamics,No_author_found,,,,,,
172,No_author_found,Out of Distribution Detection via Normalizing Flows for Open World Machine Learning,A system-level view on out-of-distribution data in robotics,No_author_found,,,,,,
173,No_author_found,Question answering over knowledge graphs for explainable satellite scheduling,Adapting a foundation model for space-based tasks,No_author_found,,,,,,
174,No_author_found,Real-time optimal control of a 6-DOF state-constrained close-proximity rendezvous mission,Learning-based warm-starting for fast sequential convex programming and trajectory optimization,No_author_found,,,,,,
175,No_author_found,Representation Learning for Extrapolation via Bilinear Transduction,A system-level view on out-of-distribution data in robotics,No_author_found,,,,,,
176,No_author_found,Towards robust spacecraft trajectory optimization via transformers,Learning-based warm-starting for fast sequential convex programming and trajectory optimization,No_author_found,,,,,,
177,No_author_found,VERVE: A 3D Operations Tool for Space Robots,VIPER Traverse Planning,No_author_found,,,,,,
178,No_author_found,[BOOK][B] Towards Safe and Aligned Embodied AI in the Era of Robotics Foundation Models,A system-level view on out-of-distribution data in robotics,No_author_found,,,,,,
179,No_author_found,[CITATION][C] A Review on Bayesian Meta-Learning for Robot Mapping and Navigation,Adaptive meta-learning for identification of rover-terrain dynamics,No_author_found,,,,,,
180,Pasquale Antonante,"Monitoring of perception systems: Deterministic, probabilistic, and learning-based fault detection and identification",A system-level view on out-of-distribution data in robotics,Massachusetts Institute of Technology,42.3582529,-71.0966272,Middlesex County,Cambridge,Massachusetts,United States
181,Pasquale Antonante,Reliable Robotic Perception: From Outlier-Robust Estimation to Task-Aware Runtime Monitoring,A system-level view on out-of-distribution data in robotics,Massachusetts Institute of Technology,42.3582529,-71.0966272,Middlesex County,Cambridge,Massachusetts,United States
182,Paul Pacaud,Guardian: Detecting Robotic Planning and Execution Errors with Vision-Language Models,A system-level view on out-of-distribution data in robotics,"PhD Student, Inria, École Normale Supérieure PSL",,,,,,
183,Peiying Hong/ Pei-Ying Hong,A calibration framework toward model generalization for bacteria concentration estimation in water resource recovery facilities,A system-level view on out-of-distribution data in robotics,"Professor, Environmental Science and Engineering, Water Desalination and Reuse Center",,,,,,
184,Philipp Gläser,Lunar far-side radio arrays: a preliminary site survey,VIPER Traverse Planning,Technische Universität Berlin,52.5110159,13.3269541,,Berlin,,Germany
185,Praveen Jawaharlal Ayyanathan,Neural Network Based Collision-Free Trajectory Generator for Quadcopters,Learning-based warm-starting for fast sequential convex programming and trajectory optimization,University of Central Florida,28.599591,-81.1971284,Orange County,Orlando,Florida,United States
186,Qiao Gu,Safe: Multitask failure detection for vision-language-action models,A system-level view on out-of-distribution data in robotics,"Meta, University of Toronto",37.4851,-122.1483,Menlo Park,San Mateo,California,USA
187,Rachel Luo,Diagnostic runtime monitoring with martingales,A system-level view on out-of-distribution data in robotics,Stanford University,37.4313138,-122.1693654,Santa Clara County,,California,United States
188,Rachel Luo,Online distribution shift detection via recency prediction,A system-level view on out-of-distribution data in robotics,Stanford University,37.4313138,-122.1693654,Santa Clara County,,California,United States
189,Rachel Luo,[BOOK][B] Sample-Efficient Uncertainty Calibration for Reliable Autonomous Systems,A system-level view on out-of-distribution data in robotics,Stanford University,37.4313138,-122.1693654,Santa Clara County,,California,United States
190,Rajiv Sambharya,Verification of Sequential Convex Programming for Parametric Non-convex Optimization,Learning-based warm-starting for fast sequential convex programming and trajectory optimization,"Postdoctoral Researcher in Electrical and Systems Engineering, University of Pennsylvania",,,,,,
191,Ralf Römer,Failure prediction at runtime for generative robot policies,A system-level view on out-of-distribution data in robotics,Technical University of Munich,48.2654976,11.6692249,Landkreis München,,Bavaria,Germany
192,Ricardo Garcia-Pinel,Guardian: Detecting Robotic Planning and Execution Errors with Vision-Language Models,A system-level view on out-of-distribution data in robotics,"PhD Student, Inria, École Normale Supérieure",,,,,,
193,Richard Linares,APBench and benchmarking large language model performance in fundamental astrodynamics problems for space engineering,Adapting a foundation model for space-based tasks,"Associate Professor, Dept. of Aeronautics & Astronautics, MIT",,,,,,
194,Rika Antonova,Deformable Cargo Transport in Microgravity with Astrobee,Learning-based warm-starting for fast sequential convex programming and trajectory optimization,Associate Professor at the University of Cambridge,,,,,,
195,Rohan Sinha,Closing the loop on runtime monitors with fallback-safe MPC,A system-level view on out-of-distribution data in robotics,"PhD Candidate, Stanford University",,,,,,
196,Rohan Sinha,Online distribution shift detection via recency prediction,A system-level view on out-of-distribution data in robotics,"PhD Candidate, Stanford University",,,,,,
197,Rohan Sinha,Real-time anomaly detection and reactive planning with large language models,A system-level view on out-of-distribution data in robotics,"PhD Candidate, Stanford University",,,,,,
198,Rohan Sinha,Real-time out-of-distribution failure prevention via multi-modal reasoning,A system-level view on out-of-distribution data in robotics,"PhD Candidate, Stanford University",,,,,,
199,Rohan Sinha,Robomonkey: Scaling test-time sampling and verification for vision-language-action models,A system-level view on out-of-distribution data in robotics,"PhD Candidate, Stanford University",,,,,,
200,Rohan Sinha,Self-supervised model generalization using out-of-distribution detection,Data lifecycle management in evolving input distributions for learning-based aerospace applications,"PhD Candidate, Stanford University",,,,,,
201,Rohan Sinha,Semantic anomaly detection with large language models,A system-level view on out-of-distribution data in robotics,"PhD Candidate, Stanford University",,,,,,
202,Rohan Sinha,Semantic anomaly detection with large language models,Data lifecycle management in evolving input distributions for learning-based aerospace applications,"PhD Candidate, Stanford University",,,,,,
203,Rohan Walia,Belief Space Control of Safety-Critical Systems Under State-Dependent Measurement Noise,A system-level view on out-of-distribution data in robotics,"PhD Student, Worcester Polytechnic Institute",,,,,,
204,Rohan Walia,Framework for Filtering Neural Network Predictions for Robust State Estimation,A system-level view on out-of-distribution data in robotics,"PhD Student, Worcester Polytechnic Institute",,,,,,
205,Ronald Moore,Meta-learning in healthcare: A survey,Adaptive meta-learning for identification of rover-terrain dynamics,Duke University,36.0001557,-78.9442297,Durham County,Durham,North Carolina,United States
206,Roya Firoozi,"Foundation models in robotics: Applications, challenges, and the future",A system-level view on out-of-distribution data in robotics,University of Waterloo,43.4701994,-80.5452429,Region of Waterloo,Waterloo,Ontario,Canada
207,Saber Fallah,Probabilistic meta-Conv1D driving energy prediction for mobile robots in unstructured terrains,Adaptive meta-learning for identification of rover-terrain dynamics,Professor at University of Surrey,,,,,,
208,Sander Tonkens,Space to Time: Out-of-Distribution Generalization of Safety Filters via Temporal Disturbance Encoding,A system-level view on out-of-distribution data in robotics,"Ph.D. student, UC San Diego",,,,,,
209,Se Hwan Jeon,Structuring Optimal Control of Legged Locomotion with Learning-based Methods,Learning-based warm-starting for fast sequential convex programming and trajectory optimization,"PhD Candidate, Massachusetts Institute of Technology",,,,,,
210,Shanwu Li,Efficient Data-Driven Modeling of Nonlinear Dynamical Systems via Metalearning,Adaptive meta-learning for identification of rover-terrain dynamics,Harbin Institute of Technology,45.741589,126.6255626,,Harbin,Heilongjiang,China
211,Shengjia Zhao,Online distribution shift detection via recency prediction,A system-level view on out-of-distribution data in robotics,OpenAI,37.7622102,-122.4104396,,San Francisco,California,United States
212,Shengxiang Sun,Safe: Multitask failure detection for vision-language-action models,A system-level view on out-of-distribution data in robotics,University of Toronto,43.6648718,-79.390485,,Toronto,Ontario,Canada
213,Shivin Dass,Model-based runtime monitoring with interactive imitation learning,A system-level view on out-of-distribution data in robotics,"PhD Student, UT Austin",,,,,,
214,Shiyu Zhou,Real-time computational powered landing guidance using convex optimization and neural networks,Learning-based warm-starting for fast sequential convex programming and trajectory optimization,City University of Hong Kong,22.3400205,114.1697162,,Hong Kong,,China
215,Shizhe Chen,Guardian: Detecting Robotic Planning and Execution Errors with Vision-Language Models,A system-level view on out-of-distribution data in robotics,INRIA Paris,48.8263548,2.3459405,,Paris,Ile-de-France,France
216,Shuai Yuan,Accelerating for Trajectory Generation in Spacecraft Proximity via MLP-LSTM Network,Learning-based warm-starting for fast sequential convex programming and trajectory optimization,Harbin Institute of Technology,45.741589,126.6255626,,Harbin,Heilongjiang,China
217,Sigrid Elschot,Plasma production and composition from hypervelocity impacts on solar cell cover glass,Electric Field Polarization of Electromagnetic Radiation from Micrometeoroid and Dust Impacts on Spacecraft,Stanford University,37.4313138,-122.1693654,Santa Clara County,,California,United States
218,Simon Geisler,Topology-matching normalizing flows for out-of-distribution detection in robot learning,A system-level view on out-of-distribution data in robotics,Google Research,37.421473,-122.080679,Santa Clara,Mountain View,California,USA
219,Simon Schaefer,Leveraging neural network gradients within trajectory optimization for proactive human-robot interactions,Learning-based warm-starting for fast sequential convex programming and trajectory optimization,Technical University of Munich,48.2654976,11.6692249,Landkreis München,,Bavaria,Germany
220,Simone D'Amico,Controls for Space: a perspective to 2030s and beyond I,Adapting a foundation model for space-based tasks,Stanford University,37.4313138,-122.1693654,Santa Clara County,,California,United States
221,Simone D'Amico,Transformers for trajectory optimization with application to spacecraft rendezvous,Learning-based warm-starting for fast sequential convex programming and trajectory optimization,Stanford University,37.4313138,-122.1693654,Santa Clara County,,California,United States
222,Sina Jahromi,Meta-learning in healthcare: A survey,Adaptive meta-learning for identification of rover-terrain dynamics,University of Tehran,35.704584,51.394761,Tehran County,Tehran,Tehran Province,Iran
223,Somrita Banerjee,Deep learning warm starts for trajectory optimization on the international space station,Data lifecycle management in evolving input distributions for learning-based aerospace applications,Apple | Stanford University,40.7397055,-73.9897743,New York County,New York,New York,United States
224,Somrita Banerjee,Deep learning warm starts for trajectory optimization on the international space station,Learning-based warm-starting for fast sequential convex programming and trajectory optimization,Apple | Stanford University,40.7397055,-73.9897743,New York County,New York,New York,United States
225,Somrita Banerjee,Diagnostic runtime monitoring with martingales,A system-level view on out-of-distribution data in robotics,Apple | Stanford University,40.7397055,-73.9897743,New York County,New York,New York,United States
226,Somrita Banerjee,Learning-Enabled Adaptation and Planning for Space Robotics,Adaptive meta-learning for identification of rover-terrain dynamics,Apple | Stanford University,40.7397055,-73.9897743,New York County,New York,New York,United States
227,Somrita Banerjee,Learning-Enabled Adaptation and Planning for Space Robotics,Contingency Planning Using Bi-level Markov Decision Processes for Space Missions,Apple | Stanford University,40.7397055,-73.9897743,New York County,New York,New York,United States
228,Somrita Banerjee,Learning-Enabled Adaptation and Planning for Space Robotics,Data lifecycle management in evolving input distributions for learning-based aerospace applications,Apple | Stanford University,40.7397055,-73.9897743,New York County,New York,New York,United States
229,Somrita Banerjee,Learning-Enabled Adaptation and Planning for Space Robotics,Diagnostic runtime monitoring with martingales,Apple | Stanford University,40.7397055,-73.9897743,New York County,New York,New York,United States
230,Somrita Banerjee,Learning-Enabled Adaptation and Planning for Space Robotics,Learning-based warm-starting for fast sequential convex programming and trajectory optimization,Apple | Stanford University,40.7397055,-73.9897743,New York County,New York,New York,United States
231,Somrita Banerjee,Learning-Enabled Adaptation and Planning for Space Robotics,Self-Supervised Model Generalization using Out-of-Distribution Detection,Apple | Stanford University,40.7397055,-73.9897743,New York County,New York,New York,United States
232,Somrita Banerjee,Self-supervised model generalization using out-of-distribution detection,Data lifecycle management in evolving input distributions for learning-based aerospace applications,Apple | Stanford University,40.7397055,-73.9897743,New York County,New York,New York,United States
233,Souradeep Dutta,Distributionally robust statistical verification with imprecise neural networks,A system-level view on out-of-distribution data in robotics,University of British Columbia,49.2484638,-123.2341555,Metro Vancouver Regional District,Electoral Area A,British Columbia,Canada
234,Stefano Silvestrini, Conditioned Sequence Models for Warm-Starting Sequential Convex Trajectory Optimization in Space Robots,Learning-based warm-starting for fast sequential convex programming and trajectory optimization,Assistant Professor of Flight Mechanics,,,,,,
235,Stephan Günnemann,Topology-matching normalizing flows for out-of-distribution detection in robot learning,A system-level view on out-of-distribution data in robotics,"Professor of Computer Science, Technical University of Munich",,,,,,
236,Stephen Tian,"Foundation models in robotics: Applications, challenges, and the future",A system-level view on out-of-distribution data in robotics,Stanford University,37.4313138,-122.1693654,Santa Clara County,,California,United States
237,Subramanian Ramamoorthy,Action sequencing using visual permutations,Learning-based warm-starting for fast sequential convex programming and trajectory optimization,"Professor of Robot Learning and Autonomy, School of Informatics, University of Edinburgh",,,,,,
238,Taekyung Kim,Safe navigation in unstructured environments by minimizing uncertainty in control and perception,Adaptive meta-learning for identification of rover-terrain dynamics,"University of Michigan, Department of Robotics",,,,,,
239,Tamás G. Molnár,Safety-critical manipulation for collision-free food preparation,Learning-based warm-starting for fast sequential convex programming and trajectory optimization,Wichita State University,37.719343,-97.2898878,Sedgwick County,Wichita,Kansas,United States
240,Tao Wang,"Reliability engineering, risk management, and trustworthiness assurance for AI systems",A system-level view on out-of-distribution data in robotics,Beihang University,39.9809427,116.3409787,,Haidian District,,China
241,Taylor Patrick Reynolds,Convex optimization for trajectory generation,Learning-based warm-starting for fast sequential convex programming and trajectory optimization,Amazon Prime Air,47.622721,-122.337176,King County,Seattle,Washington,USA
242,Taylor Patrick Reynolds,Convex optimization for trajectory generation: A tutorial on generating dynamically feasible trajectories reliably and efficiently,Learning-based warm-starting for fast sequential convex programming and trajectory optimization,Amazon Prime Air,47.622721,-122.337176,King County,Seattle,Washington,USA
243,Teng LONG,Real-time multi-quadrotor trajectory generation via distributed receding architecture and hierarchical planning in complex environments,Learning-based warm-starting for fast sequential convex programming and trajectory optimization,"School of Aerospace Engineering, Beijing Institute of Technology",,,,,,
244,Thomas Lew,Convex optimization for trajectory generation,Learning-based warm-starting for fast sequential convex programming and trajectory optimization,Toyota Research Institute,37.4025364,-122.1165511,Santa Clara County,,California,United States
245,Thomas Lew,Safe active dynamics learning and control: A sequential exploration–exploitation framework,Adaptive meta-learning for identification of rover-terrain dynamics,Toyota Research Institute,37.4025364,-122.1165511,Santa Clara County,,California,United States
246,Thomas Lew,"[BOOK][B] Uncertainty-Aware Control, Planning, and Learning for Reliable Robotic Autonomy",Adaptive meta-learning for identification of rover-terrain dynamics,Toyota Research Institute,37.4025364,-122.1165511,Santa Clara County,,California,United States
247,Thomas Lew,"[BOOK][B] Uncertainty-Aware Control, Planning, and Learning for Reliable Robotic Autonomy",Learning-based warm-starting for fast sequential convex programming and trajectory optimization,Toyota Research Institute,37.4025364,-122.1165511,Santa Clara County,,California,United States
248,Tobias Bollian,Localization of Rovers on the Lunar Surface using the Monopulse Technique,VIPER Traverse Planning,European Space Agency (ESA),48.848139,2.3043031,,Paris,Ile-de-France,France
249,Tommaso Guffanti,Transformer-based model predictive control: Trajectory optimization via sequence modeling,Learning-based warm-starting for fast sequential convex programming and trajectory optimization,Stanford University,37.4313138,-122.1693654,Santa Clara County,,California,United States
250,Tommaso Guffanti,Transformers for trajectory optimization with application to spacecraft rendezvous,Learning-based warm-starting for fast sequential convex programming and trajectory optimization,Stanford University,37.4313138,-122.1693654,Santa Clara County,,California,United States
251,Victor Rodriguez-Fernandez,Guiding Generative AI Solution for Fundamental Astrodynamics Problems,Adapting a foundation model for space-based tasks,Universidad Politécnica de Madrid,40.5473558,-3.6918341,,Madrid,Community of Madrid,Spain
252,Victoria Hodge,Out-of-Distribution Detection for Safety Assurance of AI and Autonomous Systems,A system-level view on out-of-distribution data in robotics,"University of York, UK",53.9453903,-1.0314593,York,,England,United Kingdom
253,Vivian Lin,Distributionally robust statistical verification with imprecise neural networks,A system-level view on out-of-distribution data in robotics,"Electrical and Systems Engineering, University of Pennsylvania",,,,,,
254,Wenye Yu,Armada: Autonomous online failure detection and human shared control empower scalable real-world deployment and adaptation,A system-level view on out-of-distribution data in robotics,Shanghai Jiao Tong University,31.2008912,121.4283949,,,,China
255,Xiaoge Zhang,"Reliability engineering, risk management, and trustworthiness assurance for AI systems",A system-level view on out-of-distribution data in robotics,The Hong Kong Polytechnic University,22.3044867,114.1796935,,Hong Kong,,China
256,Xing Han (Aaron),WATCH: Adaptive monitoring for AI deployments via weighted-conformal martingales,Diagnostic runtime monitoring with martingales,Johns Hopkins University,39.3302023,-76.6218536,,Baltimore,Maryland,United States
257,Xinshuo Weng,Tokenize the world into object-level knowledge to address long-tail events in autonomous driving,A system-level view on out-of-distribution data in robotics,Senior Research Scientist @ NVIDIA | CMU Robotics | ex-Meta,37.4851,-122.1483,Menlo Park,San Mateo,California,USA
258,Xuan Lin,Data-driven acceleration of mixed-integer bilinear programs: a comparative study for robot motion planning,Deep Learning Warm Starts for Trajectory Optimization on the International Space Station,Georgia Institute of Technology,33.7760948,-84.3988077,Fulton County,Atlanta,Georgia,United States
259,Yicheng Chen,Learning to Initialize Trajectory Optimization for Vision-Based Autonomous Flight in Unknown Environments,Learning-based warm-starting for fast sequential convex programming and trajectory optimization,University of Tokyo,35.7173968,139.7609415,,Bunkyō,,Japan
260,Yixiao (Alvin) Sun,Online distribution shift detection via recency prediction,A system-level view on out-of-distribution data in robotics,Stanford University,37.4313138,-122.1693654,Santa Clara County,,California,United States
261,Yongzhao Hua,Learning to Initialize Trajectory Optimization for Vision-Based Autonomous Flight in Unknown Environments,Learning-based warm-starting for fast sequential convex programming and trajectory optimization,"Associate Professor, Beihang University",,,,,,
262,Yongzhao Hua,Learning-Initialized Trajectory Planning in Unknown Environments,Learning-based warm-starting for fast sequential convex programming and trajectory optimization,"Associate Professor, Beihang University",,,,,,
263,Yuanliang Ju,Safe: Multitask failure detection for vision-language-action models,A system-level view on out-of-distribution data in robotics,CS Ph.D. Student @ University of Toronto,,,,,,
264,Yuji Takubo,Agile Tradespace Exploration for Space Rendezvous Mission Design via Transformers,Deep Learning Warm Starts for Trajectory Optimization on the International Space Station,Stanford University,37.4313138,-122.1693654,Santa Clara County,,California,United States
265,Yuji Takubo,Agile Tradespace Exploration for Space Rendezvous Mission Design via Transformers,Learning-based warm-starting for fast sequential convex programming and trajectory optimization,Stanford University,37.4313138,-122.1693654,Santa Clara County,,California,United States
266,Yuxiao Chen,Tokenize the world into object-level knowledge to address long-tail events in autonomous driving,A system-level view on out-of-distribution data in robotics,Nvidia,45.5344957,-122.886274,Washington County,Hillsboro,Oregon,United States
267,Ziyang Meng,Real-time multi-quadrotor trajectory generation via distributed receding architecture and hierarchical planning in complex environments,Learning-based warm-starting for fast sequential convex programming and trajectory optimization,Tsinghua University,40.0022905,116.320963,,Haidian District,,China
268,cewu lu,Armada: Autonomous online failure detection and human shared control empower scalable real-world deployment and adaptation,A system-level view on out-of-distribution data in robotics,Professor of Shanghai Jiao Tong University,,,,,,
269,gong shengping, Trajectory optimization with complex obstacle avoidance constraints via homotopy network sequential convex programming,Learning-based warm-starting for fast sequential convex programming and trajectory optimization,"School of Astronautics, Beihang University",,,,,,
270,이세훈,Zero-Shot Based Spatial AI Algorithm for Up-to-Date 3D Vision Map Generations in Highly Complex Indoor Environments.,Adapting a foundation model for space-based tasks,경기대학교,37.301391,127.0365609,,Suwon-si,,South Korea
